[{"OBJECT_NAME":"STARLINK-31933","OBJECT_ID":"2024-098S","EPOCH":"2026-03-09T00:21:06.716448","MEAN_MOTION":15.27564911,"ECCENTRICITY":8.855e-5,"INCLINATION":42.9985,"RA_OF_ASC_NODE":281.7463,"ARG_OF_PERICENTER":283.3365,"MEAN_ANOMALY":76.7387,"EPHEMERIS_TYPE":0,"CLASSIFICATION_TYPE":"U","NORAD_CAT_ID":59874,"ELEMENT_SET_NO":999,"REV_AT_EPOCH":10174,"BSTAR":0.00011715851,"MEAN_MOTION_DOT":2.962e-5,"MEAN_MOTION_DDOT":0},{"OBJECT_NAME":"FLOCK 4G-11","OBJECT_ID":"2025-009W","EPOCH":"2026-03-09T10:57:03.681504","MEAN_MOTION":15.27220677,"ECCENTRICITY":0.00016118,"INCLINATION":97.3964,"RA_OF_ASC_NODE":150.6183,"ARG_OF_PERICENTER":333.5407,"MEAN_ANOMALY":26.575,"EPHEMERIS_TYPE":0,"CLASSIFICATION_TYPE":"U","NORAD_CAT_ID":62629,"ELEMENT_SET_NO":999,"REV_AT_EPOCH":6368,"BSTAR":0.00047740378,"MEAN_MOTION_DOT":0.00012672,"MEAN_MOTION_DDOT":0}]
